
# Worst residual: 2.79 km
# MJD 60253.000000 (2023 Nov  5  0:00)
1969-046F = NORAD 03956 = Vela booster
1 03956U 69046F   23309.49919926  .00000000  00000-0  00000-0 0 21022
2 03956 015.5805 007.9388 8170441 274.5665 159.9569 00.46198296    03

# Worst residual: 6.43 km
# MJD 60254.000000 (2023 Nov  6  0:00)
1969-046F = NORAD 03956 = Vela booster
1 03956U 69046F   23310.49919926  .00000000  00000-0  00000-0 0 21024
2 03956 015.5781 008.0198 8166893 274.5027 326.2000 00.46188407    07

# Worst residual: 5.09 km
# MJD 60255.000000 (2023 Nov  7  0:00)
1969-046F = NORAD 03956 = Vela booster
1 03956U 69046F   23311.49919926  .00000000  00000-0  00000-0 0 21025
2 03956 015.5746 008.0469 8167496 274.4977 132.4828 00.46201909    00

# Worst residual: 8.27 km
# MJD 60256.000000 (2023 Nov  8  0:00)
1969-046F = NORAD 03956 = Vela booster
1 03956U 69046F   23312.49919926  .00000000  00000-0  00000-0 0 21026
2 03956 015.5732 008.1028 8165970 274.4517 298.8025 00.46195756    00

# Worst residual: 6.44 km
# MJD 60257.000000 (2023 Nov  9  0:00)
1969-046F = NORAD 03956 = Vela booster
1 03956U 69046F   23313.49919926  .00000000  00000-0  00000-0 0 21027
2 03956 015.5724 008.1176 8167068 274.4575 105.0646 00.46198274    05

# Worst residual: 3.37 km
# MJD 60258.000000 (2023 Nov 10  0:00)
1969-046F = NORAD 03956 = Vela booster
1 03956U 69046F   23314.49919926  .00000000  00000-0  00000-0 0 21028
2 03956 015.5711 008.1799 8168641 274.4150 271.3642 00.46202524    06

# Worst residual: 9.47 km
# MJD 60259.000000 (2023 Nov 11  0:00)
1969-046F = NORAD 03956 = Vela booster
1 03956U 69046F   23315.49919926  .00000000  00000-0  00000-0 0 21029
2 03956 015.5708 008.1924 8168064 274.4283 077.6429 00.46199274    05

# Worst residual: 4.76 km
# MJD 60260.000000 (2023 Nov 12  0:00)
1969-046F = NORAD 03956 = Vela booster
1 03956U 69046F   23316.49919926  .00000000  00000-0  00000-0 0 21020
2 03956 015.5702 008.2552 8169736 274.3904 243.8728 00.46196332    04

# Worst residual: 6.53 km
# MJD 60261.000000 (2023 Nov 13  0:00)
1969-046F = NORAD 03956 = Vela booster
1 03956U 69046F   23317.49919926  .00000000  00000-0  00000-0 0 21021
2 03956 015.5702 008.2840 8169512 274.3940 050.1602 00.46205699    03

# Worst residual: 4.39 km
# MJD 60262.000000 (2023 Nov 14  0:00)
1969-046F = NORAD 03956 = Vela booster
1 03956U 69046F   23318.49919926  .00000000  00000-0  00000-0 0 21022
2 03956 015.5687 008.3135 8169797 274.3949 216.3742 00.46192167    03

# Worst residual: 15.06 km
# MJD 60263.000000 (2023 Nov 15  0:00)
1969-046F = NORAD 03956 = Vela booster
1 03956U 69046F   23319.49919926  .00000000  00000-0  00000-0 0 21023
2 03956 015.5700 008.3395 8169826 274.3992 022.6510 00.46189955    00

# Worst residual: 2.50 km
# MJD 60264.000000 (2023 Nov 16  0:00)
1969-046F = NORAD 03956 = Vela booster
1 03956U 69046F   23320.49919926  .00000000  00000-0  00000-0 0 21025
2 03956 015.5671 008.3491 8169547 274.4148 188.9076 00.46192691    02

# Worst residual: 16.66 km
# MJD 60265.000000 (2023 Nov 17  0:00)
1969-046F = NORAD 03956 = Vela booster
1 03956U 69046F   23321.49919926  .00000000  00000-0  00000-0 0 21026
2 03956 015.5692 008.3614 8169758 274.4237 355.1905 00.46177372    03

# Worst residual: 3.04 km
# MJD 60266.000000 (2023 Nov 18  0:00)
1969-046F = NORAD 03956 = Vela booster
1 03956U 69046F   23322.49919926  .00000000  00000-0  00000-0 0 21027
2 03956 015.5665 008.3772 8169340 274.4353 161.4542 00.46191482    07

# Worst residual: 8.74 km
# MJD 60267.000000 (2023 Nov 19  0:00)
1969-046F = NORAD 03956 = Vela booster
1 03956U 69046F   23323.49919926  .00000000  00000-0  00000-0 0 21028
2 03956 015.5680 008.3917 8169678 274.4453 327.7112 00.46191296    03

# Worst residual: 4.07 km
# MJD 60268.000000 (2023 Nov 20  0:00)
1969-046F = NORAD 03956 = Vela booster
1 03956U 69046F   23324.49919926  .00000000  00000-0  00000-0 0 21029
2 03956 015.5657 008.4235 8169587 274.4494 133.9709 00.46191273    09

# Worst residual: 7.97 km
# MJD 60269.000000 (2023 Nov 21  0:00)
1969-046F = NORAD 03956 = Vela booster
1 03956U 69046F   23325.49919926  .00000000  00000-0  00000-0 0 21020
2 03956 015.5644 008.4826 8169180 274.4203 300.1790 00.46197484    06

# Worst residual: 2.68 km
# MJD 60270.000000 (2023 Nov 22  0:00)
1969-046F = NORAD 03956 = Vela booster
1 03956U 69046F   23326.49919926  .00000000  00000-0  00000-0 0 21021
2 03956 015.5633 008.5014 8169684 274.4347 106.4536 00.46202127    08

# Worst residual: 6.81 km
# MJD 60271.000000 (2023 Nov 23  0:00)
1969-046F = NORAD 03956 = Vela booster
1 03956U 69046F   23327.49919926  .00000000  00000-0  00000-0 0 21022
2 03956 015.5619 008.5739 8167722 274.3913 272.6913 00.46194658    09

# Worst residual: 11.55 km
# MJD 60272.000000 (2023 Nov 24  0:00)
1969-046F = NORAD 03956 = Vela booster
1 03956U 69046F   23328.49919926  .00000000  00000-0  00000-0 0 21023
2 03956 015.5619 008.5870 8166652 274.3991 078.9606 00.46205001    03

# Worst residual: 8.67 km
# MJD 60273.000000 (2023 Nov 25  0:00)
1969-046F = NORAD 03956 = Vela booster
1 03956U 69046F   23329.49919926  .00000000  00000-0  00000-0 0 21024
2 03956 015.5616 008.6469 8167132 274.3553 245.2520 00.46199490    01

# Worst residual: 9.17 km
# MJD 60274.000000 (2023 Nov 26  0:00)
1969-046F = NORAD 03956 = Vela booster
1 03956U 69046F   23330.49919926  .00000000  00000-0  00000-0 0 21026
2 03956 015.5641 008.6703 8166491 274.3551 051.5306 00.46190943    09

# Worst residual: 5.52 km
# MJD 60275.000000 (2023 Nov 27  0:00)
1969-046F = NORAD 03956 = Vela booster
1 03956U 69046F   23331.49919926  .00000000  00000-0  00000-0 0 21027
2 03956 015.5646 008.7833 8170946 274.2592 217.7486 00.46197828    07

# Worst residual: 17.35 km
# MJD 60276.000000 (2023 Nov 28  0:00)
1969-046F = NORAD 03956 = Vela booster
1 03956U 69046F   23332.49919926  .00000000  00000-0  00000-0 0 21028
2 03956 015.5644 008.8322 8173105 274.2462 024.0663 00.46184830    00

# Worst residual: 5.75 km
# MJD 60277.000000 (2023 Nov 29  0:00)
1969-046F = NORAD 03956 = Vela booster
1 03956U 69046F   23333.49919926  .00000000  00000-0  00000-0 0 21029
2 03956 015.5671 008.9883 8173819 274.1345 190.2153 00.46176826    00

# Worst residual: 17.72 km
# MJD 60278.000000 (2023 Nov 30  0:00)
1969-046F = NORAD 03956 = Vela booster
1 03956U 69046F   23334.49919926  .00000000  00000-0  00000-0 0 21020
2 03956 015.5597 009.1171 8176856 274.0554 356.4419 00.46178938    02

# Worst residual: 4.12 km
# MJD 60279.000000 (2023 Dec  1  0:00)
1969-046F = NORAD 03956 = Vela booster
1 03956U 69046F   23335.49919926  .00000000  00000-0  00000-0 0 21021
2 03956 015.5610 009.1951 8173951 274.0245 162.6990 00.46184513    01

# Worst residual: 11.47 km
# MJD 60280.000000 (2023 Dec  2  0:00)
1969-046F = NORAD 03956 = Vela booster
1 03956U 69046F   23336.49919926  .00000000  00000-0  00000-0 0 21022
2 03956 015.5558 009.3276 8171960 273.9246 328.8827 00.46177806    03
